[
    {
        "name": "home",
        "address": "6010 Spring Creek Lane",
        "city": "Spring",
        "zip": "77379"
    },
    {
        "name": "milan saez",
        "address": "31103 Gulf Cypress Ln",
        "city": "Hockley",
        "zip": "77447"
    },
    {
        "name": "London Saez",
        "address": "31103 Gulf Cypress Ln",
        "city": "Hockley",
        "zip": "77447"
    },
    {
        "name": "Ortega Bros",
        "address": "16103 Prairie Lea St Cypress, Tx, United States",
        "city": "Cypress",
        "zip": "77429"
    },
    {
        "name": "Samarah ABA",
        "address": "16410 Cypress Rose Hill Rd",
        "city": "Cypress",
        "zip": "77429"
    },
    {
        "name": "Chelsea Monroy",
        "address": "12215 Hurst Ct",
        "city": "Cypress",
        "zip": "77429"
    },
    {
        "name": "Zayden Gonzales",
        "address": "14903 Calico Heights Ln",
        "city": "Cypress",
        "zip": "77429"
    },
    {
        "name": "Ayden Arrington",
        "address": "15330 Ella Blvd, Unit 1613",
        "city": "Houston",
        "zip": "77090"
    },
    {
        "name": "John Demetro",
        "address": "12817 N Palomino Lake Cir",
        "city": "Cypress",
        "zip": "77429"
    },
    {
        "name": "Niles Doud",
        "address": "12715 Ravensong Dr",
        "city": "Cypress",
        "zip": "77429"
    },
    {
        "name": "Anthony Johnson",
        "address": "12027 Mariposa Canyon Dr",
        "city": "Tomball",
        "zip": "77377"
    },
    {
        "name": "Rebecca Lowery",
        "address": "12503 Exbury Ct",
        "city": "TOMBALL",
        "zip": "77377-8447"
    },
    {
        "name": "Jose Rivera",
        "address": "20330 Savannah Bay Rd Cypress, Tx, United States",
        "city": "Cypress",
        "zip": "77433"
    },
    {
        "name": "Jayden Soto",
        "address": "10000 N Eldridge Pkwy",
        "city": "Houston",
        "zip": "77065"
    }
]